GPS BIIA-23 (PRN 18)    
1 22877U 93068A   18191.32567617 -.00000046  00000-0  00000+0 0  9999
2 22877  54.4406  82.5545 0145487  75.4980 110.9860  2.00567008181016
GPS BIIR-2  (PRN 13)    
1 24876U 97035A   18190.96140497  .00000108  00000-0  00000+0 0  9998
2 24876  55.4872 211.8736 0030649  87.9695 272.4474  2.00564732153608
GPS BIIR-3  (PRN 11)    
1 25933U 99055A   18191.32591021 -.00000053  00000-0  00000+0 0  9991
2 25933  51.9033  60.6816 0167576 102.2238  87.1486  2.00566576137420
GPS BIIR-4  (PRN 20)    
1 26360U 00025A   18191.38943345  .00000008  00000-0  00000+0 0  9990
2 26360  53.2087 138.6999 0037835 118.7999 163.6622  2.00563682133127
GPS BIIR-5  (PRN 28)    
1 26407U 00040A   18191.47144383 -.00000063  00000-0  00000+0 0  9996
2 26407  56.4684 329.9856 0196863 272.8986  47.2773  2.00562847131808
GPS BIIR-6  (PRN 14)    
1 26605U 00071A   18191.39481699  .00000105  00000-0  00000+0 0  9991
2 26605  55.0606 209.4390 0102465 248.9140 281.1254  2.00571637129394
GPS BIIR-8  (PRN 16)    
1 27663U 03005A   18191.35953243 -.00000063  00000-0  00000+0 0  9995
2 27663  56.5325 329.7488 0098811  28.8491 330.4770  2.00565484113162
GPS BIIR-9  (PRN 21)    
1 27704U 03010A   18191.31676104 -.00000047  00000-0  00000+0 0  9993
2 27704  54.1115  82.1335 0245801 271.5279  16.1432  2.00563343111965
GPS BIIR-10 (PRN 22)    
1 28129U 03058A   18191.15449004  .00000015  00000-0  00000+0 0  9990
2 28129  53.0218 141.5598 0075241 273.2363  85.8708  2.00551683106655
GPS BIIR-11 (PRN 19)    
1 28190U 04009A   18191.40440709 -.00000045  00000-0  00000+0 0  9990
2 28190  56.1811  30.5874 0096490  69.8819 108.8267  2.00558663104833
GPS BIIR-12 (PRN 23)    
1 28361U 04023A   18191.34836229  .00000103  00000-0  00000+0 0  9999
2 28361  54.0620 204.1577 0127991 226.3653 188.7118  2.00551977102925
GPS BIIR-13 (PRN 02)    
1 28474U 04045A   18191.18730138 -.00000047  00000-0  00000+0 0  9990
2 28474  54.4793  81.7614 0181348 254.4727  43.7629  2.00552034100285
GPS BIIRM-1 (PRN 17)    
1 28874U 05038A   18191.37827140 -.00000046  00000-0  00000+0 0  9997
2 28874  56.3213  27.9015 0125954 258.3692 284.5731  2.00574567 93699
GPS BIIRM-2 (PRN 31)    
1 29486U 06042A   18191.36976663  .00000021  00000-0  00000+0 0  9999
2 29486  55.1659 266.7406 0087889 351.2813 109.9313  2.00561201 86407
GPS BIIRM-3 (PRN 12)    
1 29601U 06052A   18190.67357954 -.00000061  00000-0  00000-0 0  9994
2 29601  56.5089 328.6922 0069575  56.4397 304.2218  2.00577030 85255
GPS BIIRM-4 (PRN 15)    
1 32260U 07047A   18189.49991992  .00000107  00000-0  00000+0 0  9997
2 32260  53.1867 200.2355 0102087  38.2509 322.5153  2.00551600 78664
GPS BIIRM-5 (PRN 29)    
1 32384U 07062A   18191.25886396 -.00000045  00000-0  00000+0 0  9991
2 32384  56.3958  28.5172 0006118  73.2964 252.3212  2.00564761 77428
GPS BIIRM-6 (PRN 07)    
1 32711U 08012A   18191.40370404  .00000023  00000-0  00000+0 0  9991
2 32711  54.9001 266.0123 0120124 216.7838 142.4609  2.00565792 75611
GPS BIIRM-8 (PRN 05)    
1 35752U 09043A   18191.07489306  .00000022  00000-0  00000+0 0  9998
2 35752  54.3263 143.7836 0053403  34.0970 117.7761  2.00555508 65198
GPS BIIF-1  (PRN 25)    
1 36585U 10022A   18191.22526399 -.00000062  00000-0  00000+0 0  9998
2 36585  55.7985 325.2161 0072961  48.7164 315.4109  2.00569712 59440
GPS BIIF-2  (PRN 01)    
1 37753U 11036A   18191.32799238 -.00000044  00000-0  00000+0 0  9997
2 37753  55.6785  85.3103 0078351  36.3064 128.2852  2.00564360 51122
GPS BIIF-3  (PRN 24)    
1 38833U 12053A   18190.58710550  .00000024  00000-0  00000+0 0  9991
2 38833  53.9309 262.5803 0068758  29.2352 331.2221  2.00567118 42188
GPS BIIF-4  (PRN 27)    
1 39166U 13023A   18190.94415215 -.00000046  00000-0  00000+0 0  9994
2 39166  56.0176  24.8073 0059115  23.6265 336.6968  2.00562338 37720
GPS BIIF-5  (PRN 30)    
1 39533U 14008A   18190.94404747  .00000015  00000-0  00000+0 0  9999
2 39533  54.0744 267.9187 0035917 189.9571 170.0410  2.00558135 32089
GPS BIIF-6  (PRN 06)    
1 39741U 14026A   18190.72339558 -.00000045  00000-0  00000+0 0  9997
2 39741  55.6614  84.8573 0012782 294.9708  64.9363  2.00565439 30364
GPS BIIF-7  (PRN 09)    
1 40105U 14045A   18191.31318672  .00000104  00000-0  00000+0 0  9999
2 40105  54.5880 204.2762 0006729 110.9684 249.1553  2.00573214 28821
GPS BIIF-8  (PRN 03)    
1 40294U 14068A   18191.18679312  .00000024  00000-0  00000+0 0  9990
2 40294  55.0775 145.0639 0014324  19.4024 340.6193  2.00557589 27042
GPS BIIF-9  (PRN 26)    
1 40534U 15013A   18190.82280299 -.00000063  00000-0  00000+0 0  9994
2 40534  54.7390 323.9299 0027695   1.9148 358.0959  2.00562236 24107
GPS BIIF-10  (PRN 08)   
1 40730U 15033A   18190.98578900 -.00000048  00000-0  00000+0 0  9993
2 40730  55.5476  24.3014 0035546 333.4597  26.4097  2.00573263 21862
GPS BIIF-11  (PRN 10)   
1 41019U 15062A   18189.54024829  .00000040  00000-0  00000+0 0  9993
2 41019  55.0820 144.9329 0037120 205.5629 154.2293  2.00564402 19651
GPS BIIF-12  (PRN 32)   
1 41328U 16007A   18191.12371552  .00000106  00000-0  00000+0 0  9994
2 41328  54.8381 204.5803 0024001 219.6764 140.2005  2.00562296 17746
